{"fetched_at":"2026-07-23T07:05:22.094Z","source":"https://celestrak.org/NORAD/elements/gp.php?GROUP=qianfan&FORMAT=JSON","constellation":"qianfan","records":[{"OBJECT_NAME":"QIANFAN-33","OBJECT_ID":"2024-185Q","EPOCH":"2026-07-22T20:37:50.361888","CLASSIFICATION_TYPE":"U","MEAN_MOTION":13.96722714,"ECCENTRICITY":0.00077807,"INCLINATION":88.9789,"RA_OF_ASC_NODE":54.0457,"ARG_OF_PERICENTER":9.6389,"MEAN_ANOMALY":350.4936,"EPHEMERIS_TYPE":0,"NORAD_CAT_ID":61566,"ELEMENT_SET_NO":999,"REV_AT_EPOCH":10016,"BSTAR":0.00016990893,"MEAN_MOTION_DOT":0.00000249,"MEAN_MOTION_DDOT":0},{"OBJECT_NAME":"QIANFAN-34","OBJECT_ID":"2024-185R","EPOCH":"2026-07-22T20:10:50.082816","CLASSIFICATION_TYPE":"U","MEAN_MOTION":14.02485795,"ECCENTRICITY":0.00058732,"INCLINATION":88.9766,"RA_OF_ASC_NODE":53.3175,"ARG_OF_PERICENTER":13.1683,"MEAN_ANOMALY":346.965,"EPHEMERIS_TYPE":0,"NORAD_CAT_ID":61567,"ELEMENT_SET_NO":999,"REV_AT_EPOCH":10048,"BSTAR":0.00012657944,"MEAN_MOTION_DOT":0.00000208,"MEAN_MOTION_DDOT":0},{"OBJECT_NAME":"QIANFAN-35","OBJECT_ID":"2024-185S","EPOCH":"2026-07-22T20:58:33.611232","CLASSIFICATION_TYPE":"U","MEAN_MOTION":14.28303982,"ECCENTRICITY":0.00039738,"INCLINATION":88.9795,"RA_OF_ASC_NODE":50.8078,"ARG_OF_PERICENTER":281.091,"MEAN_ANOMALY":78.9837,"EPHEMERIS_TYPE":0,"NORAD_CAT_ID":61568,"ELEMENT_SET_NO":999,"REV_AT_EPOCH":10188,"BSTAR":0.0001863053,"MEAN_MOTION_DOT":0.00000479,"MEAN_MOTION_DDOT":0},{"OBJECT_NAME":"QIANFAN-36","OBJECT_ID":"2024-185T","EPOCH":"2026-07-22T20:08:45.743712","CLASSIFICATION_TYPE":"U","MEAN_MOTION":13.5564135,"ECCENTRICITY":0.0008124,"INCLINATION":88.9767,"RA_OF_ASC_NODE":57.9018,"ARG_OF_PERICENTER":110.1095,"MEAN_ANOMALY":250.0934,"EPHEMERIS_TYPE":0,"NORAD_CAT_ID":61569,"ELEMENT_SET_NO":999,"REV_AT_EPOCH":9801,"BSTAR":0.00012793444,"MEAN_MOTION_DOT":0.00000101,"MEAN_MOTION_DDOT":0},{"OBJECT_NAME":"QIANFAN-37","OBJECT_ID":"2024-232B","EPOCH":"2026-07-22T21:15:41.191488","CLASSIFICATION_TYPE":"U","MEAN_MOTION":13.51011734,"ECCENTRICITY":0.00022335,"INCLINATION":89.0073,"RA_OF_ASC_NODE":18.998,"ARG_OF_PERICENTER":108.2419,"MEAN_ANOMALY":251.8975,"EPHEMERIS_TYPE":0,"NORAD_CAT_ID":62238,"ELEMENT_SET_NO":999,"REV_AT_EPOCH":12916,"BSTAR":0.000097011099,"MEAN_MOTION_DOT":7.5e-7,"MEAN_MOTION_DDOT":0},{"OBJECT_NAME":"QIANFAN-38","OBJECT_ID":"2024-232C","EPOCH":"2026-07-22T21:51:09.936288","CLASSIFICATION_TYPE":"U","MEAN_MOTION":13.51022402,"ECCENTRICITY":0.00124809,"INCLINATION":89.008,"RA_OF_ASC_NODE":18.9263,"ARG_OF_PERICENTER":273.7656,"MEAN_ANOMALY":86.2068,"EPHEMERIS_TYPE":0,"NORAD_CAT_ID":62239,"ELEMENT_SET_NO":999,"REV_AT_EPOCH":12922,"BSTAR":0.000043558568,"MEAN_MOTION_DOT":4e-7,"MEAN_MOTION_DDOT":0},{"OBJECT_NAME":"QIANFAN-39","OBJECT_ID":"2024-232D","EPOCH":"2026-07-22T21:05:27.452544","CLASSIFICATION_TYPE":"U","MEAN_MOTION":14.25533692,"ECCENTRICITY":0.00183724,"INCLINATION":89.007,"RA_OF_ASC_NODE":12.0005,"ARG_OF_PERICENTER":73.9308,"MEAN_ANOMALY":286.3907,"EPHEMERIS_TYPE":0,"NORAD_CAT_ID":62240,"ELEMENT_SET_NO":999,"REV_AT_EPOCH":13303,"BSTAR":0.000046262488,"MEAN_MOTION_DOT":0.00000124,"MEAN_MOTION_DDOT":0},{"OBJECT_NAME":"QIANFAN-40","OBJECT_ID":"2024-232E","EPOCH":"2026-07-22T20:51:56.609280","CLASSIFICATION_TYPE":"U","MEAN_MOTION":13.51009685,"ECCENTRICITY":0.00115557,"INCLINATION":89.0108,"RA_OF_ASC_NODE":18.5769,"ARG_OF_PERICENTER":283.3417,"MEAN_ANOMALY":76.6445,"EPHEMERIS_TYPE":0,"NORAD_CAT_ID":62241,"ELEMENT_SET_NO":999,"REV_AT_EPOCH":12958,"BSTAR":0.000033727788,"MEAN_MOTION_DOT":3.4e-7,"MEAN_MOTION_DDOT":0},{"OBJECT_NAME":"QIANFAN-41","OBJECT_ID":"2024-232F","EPOCH":"2026-07-22T21:03:45.404640","CLASSIFICATION_TYPE":"U","MEAN_MOTION":13.51012691,"ECCENTRICITY":0.00118857,"INCLINATION":89.0078,"RA_OF_ASC_NODE":18.877,"ARG_OF_PERICENTER":269.228,"MEAN_ANOMALY":90.751,"EPHEMERIS_TYPE":0,"NORAD_CAT_ID":62242,"ELEMENT_SET_NO":999,"REV_AT_EPOCH":12924,"BSTAR":0.000063781545,"MEAN_MOTION_DOT":5.3e-7,"MEAN_MOTION_DDOT":0},{"OBJECT_NAME":"QIANFAN-42","OBJECT_ID":"2024-232G","EPOCH":"2026-07-22T21:04:09.743520","CLASSIFICATION_TYPE":"U","MEAN_MOTION":14.2462212,"ECCENTRICITY":0.00173002,"INCLINATION":89.0068,"RA_OF_ASC_NODE":12.0806,"ARG_OF_PERICENTER":80.0619,"MEAN_ANOMALY":280.2525,"EPHEMERIS_TYPE":0,"NORAD_CAT_ID":62243,"ELEMENT_SET_NO":999,"REV_AT_EPOCH":13299,"BSTAR":0.000045212479,"MEAN_MOTION_DOT":0.0000012,"MEAN_MOTION_DDOT":0},{"OBJECT_NAME":"QIANFAN-43","OBJECT_ID":"2024-232H","EPOCH":"2026-07-22T20:57:49.635360","CLASSIFICATION_TYPE":"U","MEAN_MOTION":13.51012028,"ECCENTRICITY":0.00134322,"INCLINATION":89.0082,"RA_OF_ASC_NODE":18.9526,"ARG_OF_PERICENTER":275.3517,"MEAN_ANOMALY":84.6102,"EPHEMERIS_TYPE":0,"NORAD_CAT_ID":62244,"ELEMENT_SET_NO":999,"REV_AT_EPOCH":9785,"BSTAR":0.000042490325,"MEAN_MOTION_DOT":3.9e-7,"MEAN_MOTION_DDOT":0},{"OBJECT_NAME":"QIANFAN-44","OBJECT_ID":"2024-232J","EPOCH":"2026-07-22T20:39:57.692160","CLASSIFICATION_TYPE":"U","MEAN_MOTION":13.51013901,"ECCENTRICITY":0.00116392,"INCLINATION":89.0081,"RA_OF_ASC_NODE":18.7609,"ARG_OF_PERICENTER":272.0436,"MEAN_ANOMALY":87.9382,"EPHEMERIS_TYPE":0,"NORAD_CAT_ID":62245,"ELEMENT_SET_NO":999,"REV_AT_EPOCH":12932,"BSTAR":0.000046890629,"MEAN_MOTION_DOT":4.2e-7,"MEAN_MOTION_DDOT":0},{"OBJECT_NAME":"QIANFAN-45","OBJECT_ID":"2024-232K","EPOCH":"2026-07-22T21:39:21.266208","CLASSIFICATION_TYPE":"U","MEAN_MOTION":13.51022545,"ECCENTRICITY":0.00123015,"INCLINATION":89.0084,"RA_OF_ASC_NODE":18.9112,"ARG_OF_PERICENTER":271.4651,"MEAN_ANOMALY":88.5091,"EPHEMERIS_TYPE":0,"NORAD_CAT_ID":62246,"ELEMENT_SET_NO":999,"REV_AT_EPOCH":12925,"BSTAR":0.000044783989,"MEAN_MOTION_DOT":4.1e-7,"MEAN_MOTION_DDOT":0},{"OBJECT_NAME":"QIANFAN-46","OBJECT_ID":"2024-232L","EPOCH":"2026-07-22T22:14:51.766656","CLASSIFICATION_TYPE":"U","MEAN_MOTION":13.5101193,"ECCENTRICITY":0.0012372,"INCLINATION":89.008,"RA_OF_ASC_NODE":18.9687,"ARG_OF_PERICENTER":277.8673,"MEAN_ANOMALY":82.1074,"EPHEMERIS_TYPE":0,"NORAD_CAT_ID":62247,"ELEMENT_SET_NO":999,"REV_AT_EPOCH":12921,"BSTAR":0.000063318576,"MEAN_MOTION_DOT":5.3e-7,"MEAN_MOTION_DDOT":0},{"OBJECT_NAME":"QIANFAN-47","OBJECT_ID":"2024-232M","EPOCH":"2026-07-22T20:34:09.113088","CLASSIFICATION_TYPE":"U","MEAN_MOTION":13.51022127,"ECCENTRICITY":0.00127882,"INCLINATION":89.0076,"RA_OF_ASC_NODE":18.8997,"ARG_OF_PERICENTER":277.0501,"MEAN_ANOMALY":82.9196,"EPHEMERIS_TYPE":0,"NORAD_CAT_ID":62248,"ELEMENT_SET_NO":999,"REV_AT_EPOCH":12923,"BSTAR":0.000078307544,"MEAN_MOTION_DOT":6.2e-7,"MEAN_MOTION_DDOT":0},{"OBJECT_NAME":"QIANFAN-48","OBJECT_ID":"2024-232N","EPOCH":"2026-07-22T21:27:14.133312","CLASSIFICATION_TYPE":"U","MEAN_MOTION":13.51016225,"ECCENTRICITY":0.00150591,"INCLINATION":89.008,"RA_OF_ASC_NODE":18.9065,"ARG_OF_PERICENTER":279.7866,"MEAN_ANOMALY":80.1585,"EPHEMERIS_TYPE":0,"NORAD_CAT_ID":62249,"ELEMENT_SET_NO":999,"REV_AT_EPOCH":12924,"BSTAR":0.000058746416,"MEAN_MOTION_DOT":5e-7,"MEAN_MOTION_DDOT":0}]}
