{"epoch":1784799577,"count":18318,"objects":[{"id":"61566","name":"QIANFAN-33","type":"PAYLOAD","l1":"1 61566U 24185Q   26203.85961067  .00000249  00000-0  16991-3 0  9993","l2":"2 61566  88.9789  54.0457 0007781   9.6389 350.4936 13.96722714100168"},{"id":"61567","name":"QIANFAN-34","type":"PAYLOAD","l1":"1 61567U 24185R   26203.84085744  .00000208  00000-0  12658-3 0  9993","l2":"2 61567  88.9766  53.3175 0005873  13.1683 346.9650 14.02485795100481"},{"id":"61568","name":"QIANFAN-35","type":"PAYLOAD","l1":"1 61568U 24185S   26203.87400013  .00000479  00000-0  18631-3 0  9994","l2":"2 61568  88.9795  50.8078 0003974 281.0910  78.9837 14.28303982101886"},{"id":"61569","name":"QIANFAN-36","type":"PAYLOAD","l1":"1 61569U 24185T   26203.83941833  .00000101  00000-0  12793-3 0  9996","l2":"2 61569  88.9767  57.9018 0008124 110.1095 250.0934 13.55641350 98010"},{"id":"62238","name":"QIANFAN-37","type":"PAYLOAD","l1":"1 62238U 24232B   26203.88589342  .00000075  00000-0  97011-4 0  9998","l2":"2 62238  89.0073  18.9980 0002233 108.2419 251.8975 13.51011734129162"},{"id":"62239","name":"QIANFAN-38","type":"PAYLOAD","l1":"1 62239U 24232C   26203.91053167  .00000040  00000-0  43559-4 0  9994","l2":"2 62239  89.0080  18.9263 0012481 273.7656  86.2068 13.51022402129226"},{"id":"62240","name":"QIANFAN-39","type":"PAYLOAD","l1":"1 62240U 24232D   26203.87878996  .00000124  00000-0  46262-4 0  9993","l2":"2 62240  89.0070  12.0005 0018372  73.9308 286.3907 14.25533692133034"},{"id":"62241","name":"QIANFAN-40","type":"PAYLOAD","l1":"1 62241U 24232E   26203.86940520  .00000034  00000-0  33728-4 0  9999","l2":"2 62241  89.0108  18.5769 0011556 283.3417  76.6445 13.51009685129580"},{"id":"62242","name":"QIANFAN-41","type":"PAYLOAD","l1":"1 62242U 24232F   26203.87760885  .00000053  00000-0  63782-4 0  9999","l2":"2 62242  89.0078  18.8770 0011886 269.2280  90.7510 13.51012691129243"},{"id":"62243","name":"QIANFAN-42","type":"PAYLOAD","l1":"1 62243U 24232G   26203.87789055  .00000120  00000-0  45212-4 0  9993","l2":"2 62243  89.0068  12.0806 0017300  80.0619 280.2525 14.24622120132994"},{"id":"62244","name":"QIANFAN-43","type":"PAYLOAD","l1":"1 62244U 24232H   26203.87349115  .00000039  00000-0  42490-4 0  9997","l2":"2 62244  89.0082  18.9526 0013432 275.3517  84.6102 13.51012028 97854"},{"id":"62245","name":"QIANFAN-44","type":"PAYLOAD","l1":"1 62245U 24232J   26203.86108440  .00000042  00000-0  46891-4 0  9994","l2":"2 62245  89.0081  18.7609 0011639 272.0436  87.9382 13.51013901129320"},{"id":"62246","name":"QIANFAN-45","type":"PAYLOAD","l1":"1 62246U 24232K   26203.90232947  .00000041  00000-0  44784-4 0  9998","l2":"2 62246  89.0084  18.9112 0012301 271.4651  88.5091 13.51022545129254"},{"id":"62247","name":"QIANFAN-46","type":"PAYLOAD","l1":"1 62247U 24232L   26203.92698804  .00000053  00000-0  63319-4 0  9997","l2":"2 62247  89.0080  18.9687 0012372 277.8673  82.1074 13.51011930129213"},{"id":"62248","name":"QIANFAN-47","type":"PAYLOAD","l1":"1 62248U 24232M   26203.85704992  .00000062  00000-0  78308-4 0  9990","l2":"2 62248  89.0076  18.8997 0012788 277.0501  82.9196 13.51022127129230"},{"id":"62249","name":"QIANFAN-48","type":"PAYLOAD","l1":"1 62249U 24232N   26203.89391358  .00000050  00000-0  58746-4 0  9994","l2":"2 62249  89.0080  18.9065 0015059 279.7866  80.1585 13.51016225129245"}]}